H1 CPF 01  gfz 2022 12 31 01  8651 tandemx   
H2 1003001  6202 36605    2022 12 31 00 59 42 2023 01 05 00 00 42   120 1 1  0 0 0
H9
10 0 59947  75582.000000  0    3591447.263  -4273375.354   4027276.940
10 0 59947  75702.000000  0    3074938.040  -3953012.250   4720087.799
10 0 59947  75822.000000  0    2510988.103  -3554110.003   5329824.856
10 0 59947  75942.000000  0    1910788.773  -3082929.698   5845789.719
10 0 59947  76062.000000  0    1286035.318  -2547190.473   6258942.592
10 0 59947  76182.000000  0     648696.251  -1955937.997   6562054.436
10 0 59947  76302.000000  0      10782.400  -1319388.283   6749827.237
10 0 59947  76422.000000  0    -615879.175   -648748.920   6818981.261
10 0 59947  76542.000000  0   -1219863.416     43979.551   6768308.516
10 0 59947  76662.000000  0   -1790354.851    746218.068   6598692.478
10 0 59947  76782.000000  0   -2317340.776   1445036.828   6313093.602
10 0 59947  76902.000000  0   -2791787.529   2127392.450   5916500.889
10 0 59947  77022.000000  0   -3205796.894   2780371.439   5415850.495
10 0 59947  77142.000000  0   -3552741.056   3391436.455   4819910.851
10 0 59947  77262.000000  0   -3827373.112   3948670.031   4139134.759
10 0 59947  77382.000000  0   -4025910.360   4441012.011   3385480.478
10 0 59947  77502.000000  0   -4146088.546   4858485.246   2572203.384
10 0 59947  77622.000000  0   -4187184.936   5192403.126   1713620.672
10 0 59947  77742.000000  0   -4150009.738   5435553.891    824855.383
10 0 59947  77862.000000  0   -4036867.212   5582357.873    -78435.743
10 0 59947  77982.000000  0   -3851486.122   5628994.050   -980347.057
10 0 59947  78102.000000  0   -3598919.737   5573489.994  -1865014.860
10 0 59947  78222.000000  0   -3285418.895   5415772.935  -2716905.262
10 0 59947  78342.000000  0   -2918281.718   5157683.394  -3521092.490
10 0 59947  78462.000000  0   -2505685.914   4802949.027  -4263522.852
10 0 59947  78582.000000  0   -2056506.888   4357121.813  -4931258.252
10 0 59947  78702.000000  0   -1580127.117   3827481.837  -5512694.608
10 0 59947  78822.000000  0   -1086241.503   3222910.744  -5997755.549
10 0 59947  78942.000000  0    -584661.412   2553735.171  -6378057.653
10 0 59947  79062.000000  0     -85122.042   1831545.164  -6647043.326
10 0 59947  79182.000000  0     402902.073   1068992.582  -6800082.771
10 0 59947  79302.000000  0     870372.033    279571.675  -6834545.796
10 0 59947  79422.000000  0    1308848.331   -522615.468  -6749842.201
10 0 59947  79542.000000  0    1710639.050  -1323105.472  -6547429.237
10 0 59947  79662.000000  0    2068931.380  -2107327.143  -6230788.992
10 0 59947  79782.000000  0    2377905.980  -2860859.999  -5805375.582
10 0 59947  79902.000000  0    2632831.912  -3569696.219  -5278532.774
10 0 59947  80022.000000  0    2830141.280  -4220502.461  -4659377.573
10 0 59947  80142.000000  0    2967479.889  -4800871.806  -3958651.673
10 0 59947  80262.000000  0    3043734.543  -5299564.452  -3188546.392
10 0 59947  80382.000000  0    3059036.273  -5706734.517  -2362498.877
10 0 59947  80502.000000  0    3014738.353  -6014133.665  -1494961.151
10 0 59947  80622.000000  0    2913369.529  -6215287.597   -601147.246
10 0 59947  80742.000000  0    2758561.633  -6305640.071    303238.524
10 0 59947  80862.000000  0    2554953.760  -6282658.318   1202284.104
10 0 59947  80982.000000  0    2308076.155  -6145900.290   2080158.117
10 0 59947  81102.000000  0    2024215.235  -5897037.870   2921399.084
10 0 59947  81222.000000  0    1710264.144  -5539836.361   3711195.027
10 0 59947  81342.000000  0    1373562.522  -5080093.314   4435649.227
10 0 59947  81462.000000  0    1021730.458  -4525537.604   5082027.276
10 0 59947  81582.000000  0     662499.947  -3885691.838   5638982.309
10 0 59947  81702.000000  0     303547.111  -3171698.310   6096752.162
10 0 59947  81822.000000  0     -47669.277  -2396116.037   6447324.059
10 0 59947  81942.000000  0    -384060.283  -1572694.806   6684567.888
10 0 59947  82062.000000  0    -699047.621   -716129.165   6804338.009
10 0 59947  82182.000000  0    -986690.851    158205.399   6804542.334
10 0 59947  82302.000000  0   -1241798.737   1034528.969   6685176.569
10 0 59947  82422.000000  0   -1460022.514   1896941.478   6448323.931
10 0 59947  82542.000000  0   -1637930.198   2729710.580   6098121.220
10 0 59947  82662.000000  0   -1773060.990   3517559.270   5640690.780
10 0 59947  82782.000000  0   -1863958.256   4245948.167   5084039.157
10 0 59947  82902.000000  0   -1910181.415   4901349.093   4437923.899
10 0 59947  83022.000000  0   -1912295.883   5471503.882   3713687.162
10 0 59947  83142.000000  0   -1871841.099   5945662.553   2924059.352
10 0 59947  83262.000000  0   -1791277.960   6314794.787   2082935.173
10 0 59947  83382.000000  0   -1673915.554   6571770.919   1205126.228
10 0 59947  83502.000000  0   -1523818.423   6711506.513    306094.504
10 0 59947  83622.000000  0   -1345697.832   6731067.118   -598327.064
10 0 59947  83742.000000  0   -1144789.444   6629731.599  -1492223.101
10 0 59947  83862.000000  0    -926719.250   6409007.282  -2359887.376
10 0 59947  83982.000000  0    -697363.686   6072598.106  -3186105.142
10 0 59947  84102.000000  0    -462707.002   5626331.611  -3956421.898
10 0 59947  84222.000000  0    -228698.993   5078046.655  -4657396.147
10 0 59947  84342.000000  0      -1116.636   4437443.395  -5276830.294
10 0 59947  84462.000000  0     214567.665   3715900.874  -5803976.211
10 0 59947  84582.000000  0     413307.974   2926265.260  -6229712.653
10 0 59947  84702.000000  0     590593.781   2082614.570  -6546691.464
10 0 59947  84822.000000  0     742544.938   1200006.232  -6749452.761
10 0 59947  84942.000000  0     865990.932    294210.266  -6834509.631
10 0 59947  85062.000000  0     958533.148   -618567.942  -6800401.599
10 0 59947  85182.000000  0    1018589.292  -1521971.569  -6647715.764
10 0 59947  85302.000000  0    1045419.662  -2399776.905  -6379076.488
10 0 59947  85422.000000  0    1039135.719  -3236176.953  -5999106.971
10 0 59947  85542.000000  0    1000689.459  -4016063.689  -5514359.685
10 0 59947  85662.000000  0     931844.028  -4725300.848  -4933212.735
10 0 59947  85782.000000  0     835126.977  -5350982.646  -4265736.710
10 0 59947  85902.000000  0     713765.349  -5881676.183  -3523531.231
10 0 59947  86022.000000  0     571604.168  -6307640.440  -2719531.484
10 0 59947  86142.000000  0     413010.187  -6621017.159  -1867788.594
10 0 59947  86262.000000  0     242762.602  -6815989.306   -983225.407
10 0 59947  86382.000000  0      65932.872  -6888900.428    -81372.040
10 0 59948    102.000000  0    -112243.251  -6838331.934    821912.119
10 0 59948    222.000000  0    -286498.087  -6665136.895   1710724.599
10 0 59948    342.000000  0    -451665.689  -6372428.403   2569409.274
10 0 59948    462.000000  0    -602813.042  -5965521.225   3382842.186
10 0 59948    582.000000  0    -735364.750  -5451826.884   4136705.060
10 0 59948    702.000000  0    -845219.525  -4840710.167   4817740.315
10 0 59948    822.000000  0    -928854.629  -4143308.816   5413985.400
10 0 59948    942.000000  0    -983415.868  -3372321.209   5914982.210
10 0 59948   1062.000000  0   -1006791.721  -2541764.690   6311957.029
10 0 59948   1182.000000  0    -997669.147  -1666713.608   6597966.368
10 0 59948   1302.000000  0    -955571.109   -763023.237   6768012.270
10 0 59948   1422.000000  0    -880876.043    152959.408   6819125.341
10 0 59948   1542.000000  0    -774817.646   1064691.491   6750413.367
10 0 59948   1662.000000  0    -639464.106   1955732.815   6563076.143
10 0 59948   1782.000000  0    -477678.013   2810041.903   6260385.659
10 0 59948   1902.000000  0    -293057.811   3612265.065   5847632.575
10 0 59948   2022.000000  0     -89862.058   4348014.933   5332038.807
10 0 59948   2142.000000  0     127083.025   5004132.680   4722637.239
10 0 59948   2262.000000  0     352491.160   5568931.776   4030119.158
10 0 59948   2382.000000  0     580735.789   6032412.558   3266648.937
10 0 59948   2502.000000  0     805979.948   6386451.095   2445657.047
10 0 59948   2622.000000  0    1022315.667   6624954.910   1581597.986
10 0 59948   2742.000000  0    1223905.444   6743973.281    689690.302
10 0 59948   2862.000000  0    1405124.679   6741766.752   -214359.024
10 0 59948   2982.000000  0    1560700.834   6618831.898  -1114639.449
10 0 59948   3102.000000  0    1685845.085   6377881.368  -1995324.755
10 0 59948   3222.000000  0    1776373.991   6023780.662  -2840958.253
10 0 59948   3342.000000  0    1828817.987   5563442.501  -3636729.621
10 0 59948   3462.000000  0    1840514.129   5005681.323  -4368737.063
10 0 59948   3582.000000  0    1809680.872   4361032.068  -5024228.487
10 0 59948   3702.000000  0    1735473.169   3641540.065  -5591817.323
10 0 59948   3822.000000  0    1618017.830   2860527.683  -6061671.755
10 0 59948   3942.000000  0    1458427.493   2032341.199  -6425674.299
10 0 59948   4062.000000  0    1258794.360   1172085.586  -6677549.724
10 0 59948   4182.000000  0    1022164.299    295351.178  -6812963.508
10 0 59948   4302.000000  0     752490.430   -582064.867  -6829588.464
10 0 59948   4422.000000  0     454567.608  -1444437.341  -6727139.125
10 0 59948   4542.000000  0     133949.387  -2276386.581  -6507374.848
10 0 59948   4662.000000  0    -203151.907  -3063145.384  -6174074.739
10 0 59948   4782.000000  0    -549981.970  -3790818.389  -5732980.237
10 0 59948   4902.000000  0    -899374.604  -4446626.031  -5191705.573
10 0 59948   5022.000000  0   -1243894.326  -5019131.921  -4559618.462
10 0 59948   5142.000000  0   -1575989.682  -5498449.229  -3847689.224
10 0 59948   5262.000000  0   -1888153.869  -5876420.883  -3068309.704
10 0 59948   5382.000000  0   -2173089.129  -6146769.462  -2235084.565
10 0 59948   5502.000000  0   -2423871.550  -6305213.644  -1362597.490
10 0 59948   5622.000000  0   -2634112.160  -6349547.447   -466155.084
99
